[{"OBJECT_NAME":"HULIANWANG DIGUI-113","OBJECT_ID":"2025-285J","EPOCH":"2026-03-06T18:57:45.778752","MEAN_MOTION":13.29330429,"ECCENTRICITY":1.08e-5,"INCLINATION":50.0099,"RA_OF_ASC_NODE":152.9142,"ARG_OF_PERICENTER":307.4568,"MEAN_ANOMALY":52.6295,"EPHEMERIS_TYPE":0,"CLASSIFICATION_TYPE":"U","NORAD_CAT_ID":66923,"ELEMENT_SET_NO":999,"REV_AT_EPOCH":1244,"BSTAR":-0.00017934,"MEAN_MOTION_DOT":-2.07e-6,"MEAN_MOTION_DDOT":0},{"OBJECT_NAME":"HULIANWANG DIGUI-114","OBJECT_ID":"2025-287A","EPOCH":"2026-03-06T18:34:53.325984","MEAN_MOTION":13.24415817,"ECCENTRICITY":0.0001975,"INCLINATION":86.4971,"RA_OF_ASC_NODE":316.995,"ARG_OF_PERICENTER":80.2935,"MEAN_ANOMALY":279.8422,"EPHEMERIS_TYPE":0,"CLASSIFICATION_TYPE":"U","NORAD_CAT_ID":66953,"ELEMENT_SET_NO":999,"REV_AT_EPOCH":1178,"BSTAR":0.00010728,"MEAN_MOTION_DOT":6.1e-7,"MEAN_MOTION_DDOT":0},{"OBJECT_NAME":"HULIANWANG DIGUI-115","OBJECT_ID":"2025-287B","EPOCH":"2026-03-06T20:12:46.425600","MEAN_MOTION":13.24415933,"ECCENTRICITY":0.0002055,"INCLINATION":86.4987,"RA_OF_ASC_NODE":316.9814,"ARG_OF_PERICENTER":79.2906,"MEAN_ANOMALY":280.846,"EPHEMERIS_TYPE":0,"CLASSIFICATION_TYPE":"U","NORAD_CAT_ID":66954,"ELEMENT_SET_NO":999,"REV_AT_EPOCH":1179,"BSTAR":7.8679e-5,"MEAN_MOTION_DOT":4.8e-7,"MEAN_MOTION_DDOT":0},{"OBJECT_NAME":"HULIANWANG DIGUI-116","OBJECT_ID":"2025-287C","EPOCH":"2026-03-06T20:01:54.367392","MEAN_MOTION":13.24416053,"ECCENTRICITY":0.000205,"INCLINATION":86.4927,"RA_OF_ASC_NODE":316.9196,"ARG_OF_PERICENTER":79.0964,"MEAN_ANOMALY":281.0401,"EPHEMERIS_TYPE":0,"CLASSIFICATION_TYPE":"U","NORAD_CAT_ID":66955,"ELEMENT_SET_NO":999,"REV_AT_EPOCH":1179,"BSTAR":6.9824e-5,"MEAN_MOTION_DOT":4.5e-7,"MEAN_MOTION_DDOT":0},{"OBJECT_NAME":"HULIANWANG DIGUI-117","OBJECT_ID":"2025-287D","EPOCH":"2026-03-06T19:51:05.258016","MEAN_MOTION":13.2441416,"ECCENTRICITY":0.0001175,"INCLINATION":86.4988,"RA_OF_ASC_NODE":316.9747,"ARG_OF_PERICENTER":19.9242,"MEAN_ANOMALY":340.1937,"EPHEMERIS_TYPE":0,"CLASSIFICATION_TYPE":"U","NORAD_CAT_ID":66956,"ELEMENT_SET_NO":999,"REV_AT_EPOCH":1179,"BSTAR":6.5335e-5,"MEAN_MOTION_DOT":4.3e-7,"MEAN_MOTION_DDOT":0},{"OBJECT_NAME":"HULIANWANG DIGUI-118","OBJECT_ID":"2025-287E","EPOCH":"2026-03-06T19:40:11.008704","MEAN_MOTION":13.24415513,"ECCENTRICITY":0.0002043,"INCLINATION":86.4964,"RA_OF_ASC_NODE":316.9482,"ARG_OF_PERICENTER":78.9325,"MEAN_ANOMALY":281.2039,"EPHEMERIS_TYPE":0,"CLASSIFICATION_TYPE":"U","NORAD_CAT_ID":66957,"ELEMENT_SET_NO":999,"REV_AT_EPOCH":1179,"BSTAR":0.00011038,"MEAN_MOTION_DOT":6.2e-7,"MEAN_MOTION_DDOT":0},{"OBJECT_NAME":"HULIANWANG DIGUI-119","OBJECT_ID":"2025-295A","EPOCH":"2026-03-05T01:43:37.710336","MEAN_MOTION":13.48505391,"ECCENTRICITY":5.248e-5,"INCLINATION":50.0045,"RA_OF_ASC_NODE":40.1576,"ARG_OF_PERICENTER":321.238,"MEAN_ANOMALY":38.8462,"EPHEMERIS_TYPE":0,"CLASSIFICATION_TYPE":"U","NORAD_CAT_ID":67059,"ELEMENT_SET_NO":999,"REV_AT_EPOCH":1163,"BSTAR":0.000105424,"MEAN_MOTION_DOT":-6.5e-7,"MEAN_MOTION_DDOT":0},{"OBJECT_NAME":"HULIANWANG DIGUI-120","OBJECT_ID":"2025-295B","EPOCH":"2026-03-04T23:37:46.469568","MEAN_MOTION":13.49182603,"ECCENTRICITY":2.974e-5,"INCLINATION":50.0059,"RA_OF_ASC_NODE":40.3667,"ARG_OF_PERICENTER":324.2577,"MEAN_ANOMALY":35.8283,"EPHEMERIS_TYPE":0,"CLASSIFICATION_TYPE":"U","NORAD_CAT_ID":67060,"ELEMENT_SET_NO":999,"REV_AT_EPOCH":1162,"BSTAR":0.00010904802,"MEAN_MOTION_DOT":-6.2e-7,"MEAN_MOTION_DDOT":0},{"OBJECT_NAME":"HULIANWANG DIGUI-121","OBJECT_ID":"2025-295C","EPOCH":"2026-03-05T01:34:30.888192","MEAN_MOTION":13.48677702,"ECCENTRICITY":5.68e-5,"INCLINATION":50.0011,"RA_OF_ASC_NODE":40.0927,"ARG_OF_PERICENTER":248.8697,"MEAN_ANOMALY":111.2123,"EPHEMERIS_TYPE":0,"CLASSIFICATION_TYPE":"U","NORAD_CAT_ID":67061,"ELEMENT_SET_NO":999,"REV_AT_EPOCH":1163,"BSTAR":0.00010633579,"MEAN_MOTION_DOT":-6.4e-7,"MEAN_MOTION_DDOT":0},{"OBJECT_NAME":"HULIANWANG DIGUI-122","OBJECT_ID":"2025-295D","EPOCH":"2026-03-05T22:35:02.453568","MEAN_MOTION":13.48227263,"ECCENTRICITY":0.00082404,"INCLINATION":50.0351,"RA_OF_ASC_NODE":36.7652,"ARG_OF_PERICENTER":292.663,"MEAN_ANOMALY":67.3379,"EPHEMERIS_TYPE":0,"CLASSIFICATION_TYPE":"U","NORAD_CAT_ID":67062,"ELEMENT_SET_NO":999,"REV_AT_EPOCH":1175,"BSTAR":9.3956584e-5,"MEAN_MOTION_DOT":-7.2e-7,"MEAN_MOTION_DDOT":0},{"OBJECT_NAME":"HULIANWANG DIGUI-123","OBJECT_ID":"2025-295E","EPOCH":"2026-03-05T01:04:13.440864","MEAN_MOTION":13.49170834,"ECCENTRICITY":8.274e-5,"INCLINATION":50.0044,"RA_OF_ASC_NODE":40.0181,"ARG_OF_PERICENTER":302.5802,"MEAN_ANOMALY":57.4999,"EPHEMERIS_TYPE":0,"CLASSIFICATION_TYPE":"U","NORAD_CAT_ID":67063,"ELEMENT_SET_NO":999,"REV_AT_EPOCH":1163,"BSTAR":0.00013557818,"MEAN_MOTION_DOT":-4.6e-7,"MEAN_MOTION_DDOT":0},{"OBJECT_NAME":"HULIANWANG DIGUI-124","OBJECT_ID":"2025-295F","EPOCH":"2026-03-06T19:36:58.990752","MEAN_MOTION":13.47534459,"ECCENTRICITY":8.39e-5,"INCLINATION":49.9971,"RA_OF_ASC_NODE":33.3501,"ARG_OF_PERICENTER":55.0703,"MEAN_ANOMALY":305.0256,"EPHEMERIS_TYPE":0,"CLASSIFICATION_TYPE":"U","NORAD_CAT_ID":67064,"ELEMENT_SET_NO":999,"REV_AT_EPOCH":1187,"BSTAR":0.00011045,"MEAN_MOTION_DOT":-6.3e-7,"MEAN_MOTION_DDOT":0},{"OBJECT_NAME":"HULIANWANG DIGUI-125","OBJECT_ID":"2025-295G","EPOCH":"2026-03-05T16:45:52.217856","MEAN_MOTION":13.48906062,"ECCENTRICITY":0.00024167,"INCLINATION":49.9968,"RA_OF_ASC_NODE":37.4377,"ARG_OF_PERICENTER":83.0342,"MEAN_ANOMALY":277.0814,"EPHEMERIS_TYPE":0,"CLASSIFICATION_TYPE":"U","NORAD_CAT_ID":67065,"ELEMENT_SET_NO":999,"REV_AT_EPOCH":1172,"BSTAR":0.00010508837,"MEAN_MOTION_DOT":-6.5e-7,"MEAN_MOTION_DDOT":0},{"OBJECT_NAME":"HULIANWANG DIGUI-126","OBJECT_ID":"2025-295H","EPOCH":"2026-03-05T16:35:28.216320","MEAN_MOTION":13.48895905,"ECCENTRICITY":0.0002733,"INCLINATION":49.9978,"RA_OF_ASC_NODE":37.4022,"ARG_OF_PERICENTER":88.0846,"MEAN_ANOMALY":272.0348,"EPHEMERIS_TYPE":0,"CLASSIFICATION_TYPE":"U","NORAD_CAT_ID":67066,"ELEMENT_SET_NO":999,"REV_AT_EPOCH":1172,"BSTAR":6.9783045e-5,"MEAN_MOTION_DOT":-8.7e-7,"MEAN_MOTION_DDOT":0},{"OBJECT_NAME":"HULIANWANG DIGUI-127","OBJECT_ID":"2025-295J","EPOCH":"2026-03-05T16:20:31.811136","MEAN_MOTION":13.48741481,"ECCENTRICITY":0.00016614,"INCLINATION":50.0007,"RA_OF_ASC_NODE":37.3603,"ARG_OF_PERICENTER":74.0158,"MEAN_ANOMALY":286.0906,"EPHEMERIS_TYPE":0,"CLASSIFICATION_TYPE":"U","NORAD_CAT_ID":67067,"ELEMENT_SET_NO":999,"REV_AT_EPOCH":1172,"BSTAR":-0.00029579974,"MEAN_MOTION_DOT":-3.16e-6,"MEAN_MOTION_DDOT":0},{"OBJECT_NAME":"HULIANWANG DIGUI-128","OBJECT_ID":"2025-311A","EPOCH":"2026-03-06T10:03:15.469920","MEAN_MOTION":13.31761214,"ECCENTRICITY":7.19e-5,"INCLINATION":50.0003,"RA_OF_ASC_NODE":124.0931,"ARG_OF_PERICENTER":281.3354,"MEAN_ANOMALY":78.7439,"EPHEMERIS_TYPE":0,"CLASSIFICATION_TYPE":"U","NORAD_CAT_ID":67236,"ELEMENT_SET_NO":999,"REV_AT_EPOCH":967,"BSTAR":0.00015638019,"MEAN_MOTION_DOT":-5.0e-7,"MEAN_MOTION_DDOT":0}]
